{
  "type": "FeatureCollection",
  "features": [
    {
      "type": "Feature",
      "properties": {
        "norad_id": 40115,
        "name": "WORLDVIEW-3 (WV-3)",
        "group": "resource",
        "lat": -71.90427936392179,
        "lon": 78.07155354791031,
        "alt_km": 618.8564430973274,
        "timestamp": "2025-12-06T16:45:42.383887+00:00",
        "meta_object_name": "WORLDVIEW-3 (WV-3)",
        "meta_object_id": "2014-048A",
        "meta_epoch": "2025-12-06T05:46:35.992704",
        "meta_mean_motion": 14.85487032,
        "meta_eccentricity": 0.00042965,
        "meta_inclination": 97.8623,
        "meta_ra_of_asc_node": 52.6029,
        "meta_arg_of_pericenter": 207.3776,
        "meta_mean_anomaly": 152.7213,
        "meta_ephemeris_type": 0,
        "meta_classification_type": "U",
        "meta_norad_cat_id": 40115,
        "meta_element_set_no": 999,
        "meta_rev_at_epoch": 61327,
        "meta_bstar": 0.0002883566,
        "meta_mean_motion_dot": 2.435e-05,
        "meta_mean_motion_ddot": 0,
        "tle_line1": "1 40115U 14048A   25340.24069436  .00002435  00000+0  28836-3 0  9999",
        "tle_line2": "2 40115  97.8623  52.6029 0004296 207.3776 152.7213 14.85487032613277"
      },
      "geometry": {
        "type": "Point",
        "coordinates": [
          78.07155354791031,
          -71.90427936392179
        ]
      }
    },
    {
      "type": "Feature",
      "properties": {
        "norad_id": 40118,
        "name": "GAOFEN-2",
        "group": "resource",
        "lat": -29.931540992269746,
        "lon": -144.8114882191292,
        "alt_km": 632.3964089738192,
        "timestamp": "2025-12-06T16:45:42.383897+00:00",
        "meta_object_name": "GAOFEN-2",
        "meta_object_id": "2014-049A",
        "meta_epoch": "2025-12-06T07:42:23.263776",
        "meta_mean_motion": 14.80591267,
        "meta_eccentricity": 0.00083624,
        "meta_inclination": 98.0394,
        "meta_ra_of_asc_node": 39.4782,
        "meta_arg_of_pericenter": 131.4349,
        "meta_mean_anomaly": 228.7583,
        "meta_ephemeris_type": 0,
        "meta_classification_type": "U",
        "meta_norad_cat_id": 40118,
        "meta_element_set_no": 999,
        "meta_rev_at_epoch": 61069,
        "meta_bstar": 0.00021266691,
        "meta_mean_motion_dot": 1.579e-05,
        "meta_mean_motion_ddot": 0,
        "tle_line1": "1 40118U 14049A   25340.32110259  .00001579  00000+0  21267-3 0  9991",
        "tle_line2": "2 40118  98.0394  39.4782 0008362 131.4349 228.7583 14.80591267610696"
      },
      "geometry": {
        "type": "Point",
        "coordinates": [
          -144.8114882191292,
          -29.931540992269746
        ]
      }
    },
    {
      "type": "Feature",
      "properties": {
        "norad_id": 40143,
        "name": "YAOGAN-21",
        "group": "resource",
        "lat": -40.19158139899373,
        "lon": 30.384452942571638,
        "alt_km": 502.9530333750499,
        "timestamp": "2025-12-06T16:45:42.383907+00:00",
        "meta_object_name": "YAOGAN-21",
        "meta_object_id": "2014-053A",
        "meta_epoch": "2025-12-06T07:28:54.783552",
        "meta_mean_motion": 15.23562764,
        "meta_eccentricity": 0.0010146,
        "meta_inclination": 97.1761,
        "meta_ra_of_asc_node": 23.9044,
        "meta_arg_of_pericenter": 61.4977,
        "meta_mean_anomaly": 298.7282,
        "meta_ephemeris_type": 0,
        "meta_classification_type": "U",
        "meta_norad_cat_id": 40143,
        "meta_element_set_no": 999,
        "meta_rev_at_epoch": 62556,
        "meta_bstar": 0.00048846929,
        "meta_mean_motion_dot": 0.00011636,
        "meta_mean_motion_ddot": 0,
        "tle_line1": "1 40143U 14053A   25340.31174518  .00011636  00000+0  48847-3 0  9999",
        "tle_line2": "2 40143  97.1761  23.9044 0010146  61.4977 298.7282 15.23562764625566"
      },
      "geometry": {
        "type": "Point",
        "coordinates": [
          30.384452942571638,
          -40.19158139899373
        ]
      }
    },
    {
      "type": "Feature",
      "properties": {
        "norad_id": 40275,
        "name": "YAOGAN-22",
        "group": "resource",
        "lat": -7.112016806422273,
        "lon": 125.38953542702708,
        "alt_km": 1205.4459441015097,
        "timestamp": "2025-12-06T16:45:42.383917+00:00",
        "meta_object_name": "YAOGAN-22",
        "meta_object_id": "2014-063A",
        "meta_epoch": "2025-12-06T04:01:18.546528",
        "meta_mean_motion": 13.15522513,
        "meta_eccentricity": 0.00059072,
        "meta_inclination": 100.7419,
        "meta_ra_of_asc_node": 123.4944,
        "meta_arg_of_pericenter": 264.1274,
        "meta_mean_anomaly": 95.9164,
        "meta_ephemeris_type": 0,
        "meta_classification_type": "U",
        "meta_norad_cat_id": 40275,
        "meta_element_set_no": 999,
        "meta_rev_at_epoch": 53443,
        "meta_bstar": 5.092346e-05,
        "meta_mean_motion_dot": -2.7e-07,
        "meta_mean_motion_ddot": 0,
        "tle_line1": "1 40275U 14063A   25340.16757577 -.00000027  00000+0  50923-4 0  9993",
        "tle_line2": "2 40275 100.7419 123.4944 0005907 264.1274  95.9164 13.15522513534437"
      },
      "geometry": {
        "type": "Point",
        "coordinates": [
          125.38953542702708,
          -7.112016806422273
        ]
      }
    },
    {
      "type": "Feature",
      "properties": {
        "norad_id": 40298,
        "name": "ASNARO",
        "group": "resource",
        "lat": 78.295473591934,
        "lon": -84.56334679478557,
        "alt_km": 497.83236595792187,
        "timestamp": "2025-12-06T16:45:42.383927+00:00",
        "meta_object_name": "ASNARO",
        "meta_object_id": "2014-070A",
        "meta_epoch": "2025-12-06T06:50:35.106720",
        "meta_mean_motion": 15.19293223,
        "meta_eccentricity": 0.00052842,
        "meta_inclination": 97.3664,
        "meta_ra_of_asc_node": 56.3909,
        "meta_arg_of_pericenter": 140.2244,
        "meta_mean_anomaly": 219.9379,
        "meta_ephemeris_type": 0,
        "meta_classification_type": "U",
        "meta_norad_cat_id": 40298,
        "meta_element_set_no": 999,
        "meta_rev_at_epoch": 61471,
        "meta_bstar": 0.00085438374,
        "meta_mean_motion_dot": 0.00017999,
        "meta_mean_motion_ddot": 0,
        "tle_line1": "1 40298U 14070A   25340.28512855  .00017999  00000+0  85438-3 0  9990",
        "tle_line2": "2 40298  97.3664  56.3909 0005284 140.2244 219.9379 15.19293223614714"
      },
      "geometry": {
        "type": "Point",
        "coordinates": [
          -84.56334679478557,
          78.295473591934
        ]
      }
    },
    {
      "type": "Feature",
      "properties": {
        "norad_id": 40310,
        "name": "YAOGAN-24",
        "group": "resource",
        "lat": -68.4019813375819,
        "lon": 132.90589226908108,
        "alt_km": 655.7092648827465,
        "timestamp": "2025-12-06T16:45:42.383937+00:00",
        "meta_object_name": "YAOGAN-24",
        "meta_object_id": "2014-072A",
        "meta_epoch": "2025-12-06T07:19:04.676736",
        "meta_mean_motion": 14.76156482,
        "meta_eccentricity": 0.00144438,
        "meta_inclination": 98.1224,
        "meta_ra_of_asc_node": 111.3643,
        "meta_arg_of_pericenter": 157.8963,
        "meta_mean_anomaly": 202.2872,
        "meta_ephemeris_type": 0,
        "meta_classification_type": "U",
        "meta_norad_cat_id": 40310,
        "meta_element_set_no": 999,
        "meta_rev_at_epoch": 59526,
        "meta_bstar": 0.00030939984,
        "meta_mean_motion_dot": 2.089e-05,
        "meta_mean_motion_ddot": 0,
        "tle_line1": "1 40310U 14072A   25340.30491524  .00002089  00000+0  30940-3 0  9991",
        "tle_line2": "2 40310  98.1224 111.3643 0014443 157.8963 202.2872 14.76156482595264"
      },
      "geometry": {
        "type": "Point",
        "coordinates": [
          132.90589226908108,
          -68.4019813375819
        ]
      }
    },
    {
      "type": "Feature",
      "properties": {
        "norad_id": 40336,
        "name": "CBERS 4",
        "group": "resource",
        "lat": -13.304309215623505,
        "lon": -143.06410950359188,
        "alt_km": 777.5483176213247,
        "timestamp": "2025-12-06T16:45:42.383947+00:00",
        "meta_object_name": "CBERS 4",
        "meta_object_id": "2014-079A",
        "meta_epoch": "2025-12-06T07:29:59.625024",
        "meta_mean_motion": 14.35514204,
        "meta_eccentricity": 0.0001504,
        "meta_inclination": 98.3319,
        "meta_ra_of_asc_node": 38.5491,
        "meta_arg_of_pericenter": 121.5229,
        "meta_mean_anomaly": 238.6104,
        "meta_ephemeris_type": 0,
        "meta_classification_type": "U",
        "meta_norad_cat_id": 40336,
        "meta_element_set_no": 999,
        "meta_rev_at_epoch": 57628,
        "meta_bstar": 0.00013544857,
        "meta_mean_motion_dot": 3.48e-06,
        "meta_mean_motion_ddot": 0,
        "tle_line1": "1 40336U 14079A   25340.31249566  .00000348  00000+0  13545-3 0  9992",
        "tle_line2": "2 40336  98.3319  38.5491 0001504 121.5229 238.6104 14.35514204576284"
      },
      "geometry": {
        "type": "Point",
        "coordinates": [
          -143.06410950359188,
          -13.304309215623505
        ]
      }
    }
  ]
}